NOAA 15                 
1 25338U 98030A   21250.10715613  .00000050  00000-0  39154-4 0  9996
2 25338  98.6778 277.8822 0011154  47.8918 312.3208 14.26056586212886
